*******************************************************************************
Ephemeris / WWW_USER Mon Jul 15 19:30:36 2024 Pasadena, USA      / Horizons    
*******************************************************************************
Target body name: Hale-Bopp (C/1995 O1)           {source: JPL#226}
Center body name: Earth (399)                     {source: DE441}
Center-site name: Gemini South Obs., Cerro Pachon
*******************************************************************************
Start time      : A.D. 2018-Nov-28 23:37:00.0000 UT      
Stop  time      : A.D. 2018-Nov-29 09:24:00.0000 UT      
Step-size       : 1 minutes
*******************************************************************************
Target pole/equ : undefined
Target radii    : 30. km                                                       
Center geodetic : 289.2634, -30.2406227, 2.71233  {E-lon(deg),Lat(deg),Alt(km)}
Center cylindric: 289.2634,5517.21435,-3194.81213 {E-lon(deg),Dxy(km),Dz(km)}
Center pole/equ : ITRF93                          {East-longitude positive}
Center radii    : 6378.137, 6378.137, 6356.752 km {Equator_a, b, pole_c}       
Target primary  : Sun
Vis. interferer : MOON (R_eq= 1737.400) km        {source: DE441}
Rel. light bend : Sun                             {source: DE441}
Rel. lght bnd GM: 1.3271E+11 km^3/s^2                                          
Small-body perts: Yes                             {source: SB441-N16}
Atmos refraction: NO (AIRLESS)
RA format       : HMS
Time format     : CAL 
Calendar mode   : Mixed Julian/Gregorian
RTS-only print  : NO       
EOP file        : eop.240715.p241008                                           
EOP coverage    : DATA-BASED 1962-JAN-20 TO 2024-JUL-15. PREDICTS-> 2024-OCT-07
Units conversion: 1 au= 149597870.700 km, c= 299792.458 km/s, 1 day= 86400.0 s 
Table cut-offs 1: Elevation (-90.0deg=NO ),Airmass (>38.000=NO), Daylight (YES)
Table cut-offs 2: Solar elongation (  0.0,180.0=NO ),Local Hour Angle( 0.0=NO )
Table cut-offs 3: RA/DEC angular rate (     0.0=NO )                           
*******************************************************************************
Initial IAU76/J2000 heliocentric ecliptic osculating elements (au, days, deg.):
  EPOCH=  2459837.5 ! 2022-Sep-15.0000000 (TDB)    RMSW= n.a.                  
   EC= .9949810027633206   QR= .890537663547794    TP= 2450537.1349071441      
   OM= 282.7334213961641   W= 130.4146670659176    IN= 89.28759424740302       
  Equivalent ICRF heliocentric cartesian coordinates (au, au/d):
   X= 3.907631452214869E+00  Y=-1.373895334060347E+00  Z=-4.624358508575312E+01
  VX= 3.778244409519935E-04 VY=-5.803173067116371E-04 VZ=-3.255716412104052E-03
Comet physical (GM= km^3/s^2; RAD= km):                                        
   GM= n.a.                RAD= 30.                                            
   M1=  4.8      M2=  n.a.     k1=  4.     k2= n.a.     PHCOF= n.a.            
*******************************************************************************
 Date__(UT)__HR:MN     R.A._________(ICRF)_________DEC
******************************************************
$$SOE
 2018-Nov-29 05:49  m  22 19 41.409300 -85 31 28.05838
 2018-Nov-29 05:50  m  22 19 41.411961 -85 31 27.99885
 2018-Nov-29 05:51  m  22 19 41.414625 -85 31 27.93932
 2018-Nov-29 05:52  m  22 19 41.417293 -85 31 27.87979
 2018-Nov-29 05:53  m  22 19 41.419964 -85 31 27.82027
 2018-Nov-29 05:54  m  22 19 41.422638 -85 31 27.76074
 2018-Nov-29 05:55  m  22 19 41.425315 -85 31 27.70122
 2018-Nov-29 05:56  m  22 19 41.427996 -85 31 27.64170
 2018-Nov-29 05:57  m  22 19 41.430680 -85 31 27.58218
 2018-Nov-29 05:58  m  22 19 41.433367 -85 31 27.52266
 2018-Nov-29 05:59  m  22 19 41.436058 -85 31 27.46314
 2018-Nov-29 06:00  m  22 19 41.438752 -85 31 27.40362
 2018-Nov-29 06:01  m  22 19 41.441449 -85 31 27.34411
 2018-Nov-29 06:02  m  22 19 41.444150 -85 31 27.28459
 2018-Nov-29 06:03  m  22 19 41.446854 -85 31 27.22508
 2018-Nov-29 06:04  m  22 19 41.449561 -85 31 27.16557
 2018-Nov-29 06:05  m  22 19 41.452271 -85 31 27.10606
 2018-Nov-29 06:06  m  22 19 41.454985 -85 31 27.04655
 2018-Nov-29 06:07  m  22 19 41.457702 -85 31 26.98704
 2018-Nov-29 06:08  m  22 19 41.460422 -85 31 26.92754
 2018-Nov-29 06:09  m  22 19 41.463145 -85 31 26.86803
 2018-Nov-29 06:10  m  22 19 41.465872 -85 31 26.80853
 2018-Nov-29 06:11  m  22 19 41.468602 -85 31 26.74903
 2018-Nov-29 06:12  m  22 19 41.471335 -85 31 26.68953
 2018-Nov-29 06:13  m  22 19 41.474071 -85 31 26.63003
 2018-Nov-29 06:14  m  22 19 41.476811 -85 31 26.57053
 2018-Nov-29 06:15  m  22 19 41.479554 -85 31 26.51103
 2018-Nov-29 06:16  m  22 19 41.482299 -85 31 26.45154
 2018-Nov-29 06:17  m  22 19 41.485049 -85 31 26.39205
 2018-Nov-29 06:18  m  22 19 41.487801 -85 31 26.33256
 2018-Nov-29 06:19  m  22 19 41.490557 -85 31 26.27307
 2018-Nov-29 06:20  m  22 19 41.493315 -85 31 26.21358
 2018-Nov-29 06:21  m  22 19 41.496077 -85 31 26.15409
 2018-Nov-29 06:22  m  22 19 41.498842 -85 31 26.09460
 2018-Nov-29 06:23  m  22 19 41.501611 -85 31 26.03512
 2018-Nov-29 06:24  m  22 19 41.504382 -85 31 25.97564
 2018-Nov-29 06:25  m  22 19 41.507157 -85 31 25.91616
 2018-Nov-29 06:26  m  22 19 41.509934 -85 31 25.85668
 2018-Nov-29 06:27  m  22 19 41.512715 -85 31 25.79720
 2018-Nov-29 06:28  m  22 19 41.515499 -85 31 25.73773
 2018-Nov-29 06:29  m  22 19 41.518286 -85 31 25.67825
 2018-Nov-29 06:30  m  22 19 41.521077 -85 31 25.61878
 2018-Nov-29 06:31  m  22 19 41.523870 -85 31 25.55931
 2018-Nov-29 06:32  m  22 19 41.526667 -85 31 25.49984
 2018-Nov-29 06:33  m  22 19 41.529466 -85 31 25.44038
 2018-Nov-29 06:34  m  22 19 41.532269 -85 31 25.38091
 2018-Nov-29 06:35  m  22 19 41.535075 -85 31 25.32145
 2018-Nov-29 06:36  m  22 19 41.537884 -85 31 25.26198
 2018-Nov-29 06:37  m  22 19 41.540696 -85 31 25.20252
 2018-Nov-29 06:38  m  22 19 41.543511 -85 31 25.14307
 2018-Nov-29 06:39  m  22 19 41.546329 -85 31 25.08361
 2018-Nov-29 06:40  m  22 19 41.549150 -85 31 25.02416
 2018-Nov-29 06:41  m  22 19 41.551974 -85 31 24.96470
 2018-Nov-29 06:42  m  22 19 41.554801 -85 31 24.90525
 2018-Nov-29 06:43  m  22 19 41.557632 -85 31 24.84580
 2018-Nov-29 06:44  m  22 19 41.560465 -85 31 24.78636
 2018-Nov-29 06:45  m  22 19 41.563301 -85 31 24.72691
 2018-Nov-29 06:46  m  22 19 41.566141 -85 31 24.66747
 2018-Nov-29 06:47  m  22 19 41.568983 -85 31 24.60803
 2018-Nov-29 06:48  m  22 19 41.571828 -85 31 24.54859
 2018-Nov-29 06:49  m  22 19 41.574677 -85 31 24.48915
 2018-Nov-29 06:50  m  22 19 41.577528 -85 31 24.42971
 2018-Nov-29 06:51  m  22 19 41.580383 -85 31 24.37028
 2018-Nov-29 06:52  m  22 19 41.583240 -85 31 24.31085
 2018-Nov-29 06:53  m  22 19 41.586100 -85 31 24.25142
 2018-Nov-29 06:54  m  22 19 41.588963 -85 31 24.19199
 2018-Nov-29 06:55  m  22 19 41.591829 -85 31 24.13256
 2018-Nov-29 06:56  m  22 19 41.594699 -85 31 24.07314
 2018-Nov-29 06:57  m  22 19 41.597571 -85 31 24.01372
 2018-Nov-29 06:58  m  22 19 41.600446 -85 31 23.95430
 2018-Nov-29 06:59  m  22 19 41.603324 -85 31 23.89488
 2018-Nov-29 07:00  m  22 19 41.606204 -85 31 23.83547
 2018-Nov-29 07:01  m  22 19 41.609088 -85 31 23.77605
 2018-Nov-29 07:02  m  22 19 41.611975 -85 31 23.71664
 2018-Nov-29 07:03  m  22 19 41.614864 -85 31 23.65723
 2018-Nov-29 07:04  m  22 19 41.617757 -85 31 23.59782
 2018-Nov-29 07:05  m  22 19 41.620652 -85 31 23.53842
 2018-Nov-29 07:06  m  22 19 41.623550 -85 31 23.47902
 2018-Nov-29 07:07  m  22 19 41.626451 -85 31 23.41962
 2018-Nov-29 07:08  m  22 19 41.629355 -85 31 23.36022
 2018-Nov-29 07:09  m  22 19 41.632261 -85 31 23.30082
 2018-Nov-29 07:10  m  22 19 41.635171 -85 31 23.24143
 2018-Nov-29 07:11  m  22 19 41.638083 -85 31 23.18203
 2018-Nov-29 07:12  m  22 19 41.640998 -85 31 23.12264
 2018-Nov-29 07:13  m  22 19 41.643916 -85 31 23.06326
 2018-Nov-29 07:14  m  22 19 41.646837 -85 31 23.00387
 2018-Nov-29 07:15  m  22 19 41.649760 -85 31 22.94449
 2018-Nov-29 07:16  m  22 19 41.652687 -85 31 22.88511
 2018-Nov-29 07:17  m  22 19 41.655616 -85 31 22.82573
 2018-Nov-29 07:18  m  22 19 41.658548 -85 31 22.76635
 2018-Nov-29 07:19  m  22 19 41.661482 -85 31 22.70698
 2018-Nov-29 07:20  m  22 19 41.664420 -85 31 22.64761
 2018-Nov-29 07:21  m  22 19 41.667360 -85 31 22.58824
 2018-Nov-29 07:22  m  22 19 41.670302 -85 31 22.52887
 2018-Nov-29 07:23  m  22 19 41.673248 -85 31 22.46950
 2018-Nov-29 07:24  m  22 19 41.676196 -85 31 22.41014
 2018-Nov-29 07:25  m  22 19 41.679147 -85 31 22.35078
 2018-Nov-29 07:26  m  22 19 41.682101 -85 31 22.29142
 2018-Nov-29 07:27  m  22 19 41.685057 -85 31 22.23207
 2018-Nov-29 07:28  m  22 19 41.688016 -85 31 22.17272
 2018-Nov-29 07:29  m  22 19 41.690978 -85 31 22.11336
 2018-Nov-29 07:30  m  22 19 41.693942 -85 31 22.05402
 2018-Nov-29 07:31  m  22 19 41.696909 -85 31 21.99467
 2018-Nov-29 07:32  m  22 19 41.699879 -85 31 21.93533
 2018-Nov-29 07:33  m  22 19 41.702851 -85 31 21.87599
 2018-Nov-29 07:34  m  22 19 41.705826 -85 31 21.81665
 2018-Nov-29 07:35  m  22 19 41.708803 -85 31 21.75731
 2018-Nov-29 07:36  m  22 19 41.711783 -85 31 21.69798
 2018-Nov-29 07:37  m  22 19 41.714766 -85 31 21.63865
 2018-Nov-29 07:38  m  22 19 41.717751 -85 31 21.57932
 2018-Nov-29 07:39  m  22 19 41.720739 -85 31 21.51999
 2018-Nov-29 07:40  m  22 19 41.723729 -85 31 21.46067
 2018-Nov-29 07:41  m  22 19 41.726722 -85 31 21.40135
 2018-Nov-29 07:42  m  22 19 41.729718 -85 31 21.34203
 2018-Nov-29 07:43  m  22 19 41.732716 -85 31 21.28271
 2018-Nov-29 07:44  m  22 19 41.735716 -85 31 21.22340
 2018-Nov-29 07:45  m  22 19 41.738719 -85 31 21.16409
 2018-Nov-29 07:46  m  22 19 41.741725 -85 31 21.10478
 2018-Nov-29 07:47  m  22 19 41.744733 -85 31 21.04547
 2018-Nov-29 07:48  m  22 19 41.747743 -85 31 20.98617
 2018-Nov-29 07:49  m  22 19 41.750756 -85 31 20.92687
 2018-Nov-29 07:50  m  22 19 41.753772 -85 31 20.86757
 2018-Nov-29 07:51  m  22 19 41.756790 -85 31 20.80828
 2018-Nov-29 07:52  m  22 19 41.759810 -85 31 20.74898
